{
  "type": "FeatureCollection",
  "features": [
    {
      "type": "Feature",
      "properties": {
        "norad_id": 30749,
        "name": "FENGYUN 1C DEB",
        "group": "fengyun-1c-debris",
        "lat": -30.09823908116175,
        "lon": -173.1456583785834,
        "alt_km": 864.1808943416754,
        "timestamp": "2025-12-11T05:00:26.587261+00:00",
        "meta_object_name": "FENGYUN 1C DEB",
        "meta_object_id": "1999-025ATK",
        "meta_epoch": "2025-12-10T12:33:45.372384",
        "meta_mean_motion": 13.9983641,
        "meta_eccentricity": 0.0055246,
        "meta_inclination": 98.8877,
        "meta_ra_of_asc_node": 11.3927,
        "meta_arg_of_pericenter": 238.6464,
        "meta_mean_anomaly": 120.9288,
        "meta_ephemeris_type": 0,
        "meta_classification_type": "U",
        "meta_norad_cat_id": 30749,
        "meta_element_set_no": 999,
        "meta_rev_at_epoch": 95935,
        "meta_bstar": 0.00017046,
        "meta_mean_motion_dot": 2.1e-06,
        "meta_mean_motion_ddot": 0,
        "tle_line1": "1 30749U 99025ATK 25344.52344181  .00000210  00000+0  17046-3 0  9997",
        "tle_line2": "2 30749  98.8877  11.3927 0055246 238.6464 120.9288 13.99836410959355"
      },
      "geometry": {
        "type": "Point",
        "coordinates": [
          -173.1456583785834,
          -30.09823908116175
        ]
      }
    },
    {
      "type": "Feature",
      "properties": {
        "norad_id": 30750,
        "name": "FENGYUN 1C DEB",
        "group": "fengyun-1c-debris",
        "lat": -39.63570791960753,
        "lon": 67.19703616166711,
        "alt_km": 826.7844984442772,
        "timestamp": "2025-12-11T05:00:26.587271+00:00",
        "meta_object_name": "FENGYUN 1C DEB",
        "meta_object_id": "1999-025ATL",
        "meta_epoch": "2025-12-10T23:18:25.804800",
        "meta_mean_motion": 14.28577548,
        "meta_eccentricity": 0.00408442,
        "meta_inclination": 98.9196,
        "meta_ra_of_asc_node": 59.4798,
        "meta_arg_of_pericenter": 105.194,
        "meta_mean_anomaly": 74.1614,
        "meta_ephemeris_type": 0,
        "meta_classification_type": "U",
        "meta_norad_cat_id": 30750,
        "meta_element_set_no": 999,
        "meta_rev_at_epoch": 96756,
        "meta_bstar": 0.0027086063,
        "meta_mean_motion_dot": 6.817e-05,
        "meta_mean_motion_ddot": 0,
        "tle_line1": "1 30750U 99025ATL 25344.97113200  .00006817  00000+0  27086-2 0  9997",
        "tle_line2": "2 30750  98.9196  59.4798 0040844 105.1940  74.1614 14.28577548967568"
      },
      "geometry": {
        "type": "Point",
        "coordinates": [
          67.19703616166711,
          -39.63570791960753
        ]
      }
    },
    {
      "type": "Feature",
      "properties": {
        "norad_id": 30751,
        "name": "FENGYUN 1C DEB",
        "group": "fengyun-1c-debris",
        "lat": 52.18980854165116,
        "lon": -123.98816057924552,
        "alt_km": 802.6132091690424,
        "timestamp": "2025-12-11T05:00:26.587281+00:00",
        "meta_object_name": "FENGYUN 1C DEB",
        "meta_object_id": "1999-025ATM",
        "meta_epoch": "2025-12-10T15:33:06.632352",
        "meta_mean_motion": 14.15183342,
        "meta_eccentricity": 0.005255,
        "meta_inclination": 98.855,
        "meta_ra_of_asc_node": 43.8659,
        "meta_arg_of_pericenter": 102.4667,
        "meta_mean_anomaly": 49.3966,
        "meta_ephemeris_type": 0,
        "meta_classification_type": "U",
        "meta_norad_cat_id": 30751,
        "meta_element_set_no": 999,
        "meta_rev_at_epoch": 96246,
        "meta_bstar": 0.0020242,
        "meta_mean_motion_dot": 3.942e-05,
        "meta_mean_motion_ddot": 0,
        "tle_line1": "1 30751U 99025ATM 25344.64799343  .00003942  00000+0  20242-2 0  9993",
        "tle_line2": "2 30751  98.8550  43.8659 0052550 102.4667  49.3966 14.15183342962467"
      },
      "geometry": {
        "type": "Point",
        "coordinates": [
          -123.98816057924552,
          52.18980854165116
        ]
      }
    },
    {
      "type": "Feature",
      "properties": {
        "norad_id": 30753,
        "name": "FENGYUN 1C DEB",
        "group": "fengyun-1c-debris",
        "lat": -57.7642381733615,
        "lon": 38.05810540190091,
        "alt_km": 836.2726244458518,
        "timestamp": "2025-12-11T05:00:26.587291+00:00",
        "meta_object_name": "FENGYUN 1C DEB",
        "meta_object_id": "1999-025ATP",
        "meta_epoch": "2025-12-10T20:47:00.804192",
        "meta_mean_motion": 14.12633097,
        "meta_eccentricity": 0.0055415,
        "meta_inclination": 98.8074,
        "meta_ra_of_asc_node": 23.4888,
        "meta_arg_of_pericenter": 0.5723,
        "meta_mean_anomaly": 359.5503,
        "meta_ephemeris_type": 0,
        "meta_classification_type": "U",
        "meta_norad_cat_id": 30753,
        "meta_element_set_no": 999,
        "meta_rev_at_epoch": 96325,
        "meta_bstar": 0.0011990016,
        "meta_mean_motion_dot": 2.21e-05,
        "meta_mean_motion_ddot": 0,
        "tle_line1": "1 30753U 99025ATP 25344.86598153  .00002210  00000+0  11990-2 0  9992",
        "tle_line2": "2 30753  98.8074  23.4888 0055415   0.5723 359.5503 14.12633097963257"
      },
      "geometry": {
        "type": "Point",
        "coordinates": [
          38.05810540190091,
          -57.7642381733615
        ]
      }
    },
    {
      "type": "Feature",
      "properties": {
        "norad_id": 30755,
        "name": "FENGYUN 1C DEB",
        "group": "fengyun-1c-debris",
        "lat": -63.29648630397671,
        "lon": 143.03238799217476,
        "alt_km": 655.3546763941931,
        "timestamp": "2025-12-11T05:00:26.587301+00:00",
        "meta_object_name": "FENGYUN 1C DEB",
        "meta_object_id": "1999-025ATR",
        "meta_epoch": "2025-12-10T23:01:44.292288",
        "meta_mean_motion": 14.44938171,
        "meta_eccentricity": 0.01508896,
        "meta_inclination": 98.2586,
        "meta_ra_of_asc_node": 339.5724,
        "meta_arg_of_pericenter": 274.5631,
        "meta_mean_anomaly": 115.7274,
        "meta_ephemeris_type": 0,
        "meta_classification_type": "U",
        "meta_norad_cat_id": 30755,
        "meta_element_set_no": 999,
        "meta_rev_at_epoch": 98419,
        "meta_bstar": 0.0010319843,
        "meta_mean_motion_dot": 4.087e-05,
        "meta_mean_motion_ddot": 0,
        "tle_line1": "1 30755U 99025ATR 25344.95954042  .00004087  00000+0  10320-2 0  9997",
        "tle_line2": "2 30755  98.2586 339.5724 0150889 274.5631 115.7274 14.44938171984192"
      },
      "geometry": {
        "type": "Point",
        "coordinates": [
          143.03238799217476,
          -63.29648630397671
        ]
      }
    },
    {
      "type": "Feature",
      "properties": {
        "norad_id": 30756,
        "name": "FENGYUN 1C DEB",
        "group": "fengyun-1c-debris",
        "lat": 4.597588999706106,
        "lon": 51.866188492231025,
        "alt_km": 796.557611730811,
        "timestamp": "2025-12-11T05:00:26.587311+00:00",
        "meta_object_name": "FENGYUN 1C DEB",
        "meta_object_id": "1999-025ATS",
        "meta_epoch": "2025-12-10T16:09:58.040352",
        "meta_mean_motion": 14.18257027,
        "meta_eccentricity": 0.007096,
        "meta_inclination": 98.991,
        "meta_ra_of_asc_node": 52.0538,
        "meta_arg_of_pericenter": 322.2694,
        "meta_mean_anomaly": 191.6271,
        "meta_ephemeris_type": 0,
        "meta_classification_type": "U",
        "meta_norad_cat_id": 30756,
        "meta_element_set_no": 999,
        "meta_rev_at_epoch": 96375,
        "meta_bstar": 0.0019816,
        "meta_mean_motion_dot": 4.136e-05,
        "meta_mean_motion_ddot": 0,
        "tle_line1": "1 30756U 99025ATS 25344.67358843  .00004136  00000+0  19816-2 0  9998",
        "tle_line2": "2 30756  98.9910  52.0538 0070960 322.2694 191.6271 14.18257027963756"
      },
      "geometry": {
        "type": "Point",
        "coordinates": [
          51.866188492231025,
          4.597588999706106
        ]
      }
    },
    {
      "type": "Feature",
      "properties": {
        "norad_id": 30758,
        "name": "FENGYUN 1C DEB",
        "group": "fengyun-1c-debris",
        "lat": 43.12134966830114,
        "lon": 95.32834720061447,
        "alt_km": 809.0464867045057,
        "timestamp": "2025-12-11T05:00:26.587344+00:00",
        "meta_object_name": "FENGYUN 1C DEB",
        "meta_object_id": "1999-025ATU",
        "meta_epoch": "2025-12-10T19:21:24.929856",
        "meta_mean_motion": 14.17097942,
        "meta_eccentricity": 0.00384538,
        "meta_inclination": 99.0177,
        "meta_ra_of_asc_node": 103.4732,
        "meta_arg_of_pericenter": 9.0554,
        "meta_mean_anomaly": 144.3559,
        "meta_ephemeris_type": 0,
        "meta_classification_type": "U",
        "meta_norad_cat_id": 30758,
        "meta_element_set_no": 999,
        "meta_rev_at_epoch": 96463,
        "meta_bstar": 0.0016356488,
        "meta_mean_motion_dot": 3.272e-05,
        "meta_mean_motion_ddot": 0,
        "tle_line1": "1 30758U 99025ATU 25344.80653854  .00003272  00000+0  16356-2 0  9991",
        "tle_line2": "2 30758  99.0177 103.4732 0038453   9.0554 144.3559 14.17097942964637"
      },
      "geometry": {
        "type": "Point",
        "coordinates": [
          95.32834720061447,
          43.12134966830114
        ]
      }
    }
  ]
}